{
"type": "FeatureCollection",
"name": "Colombia",
"crs": { "type": "name", "properties": { "name": "urn:ogc:def:crs:OGC:1.3:CRS84" } },
"features": [
{ "type": "Feature", "properties": { "fid": 161, "cntry_name": "Colombia", "join_name": "Colombia", "iso2_2": null, "iso_a2": "CO", "iso2": "CO", "cou_iso3_co": "COL", "iso3": "COL" }, "geometry": { "type": "MultiPolygon", "coordinates": [ [ [ [ -81.713058471679588, 12.490276336669897 ], [ -81.720138549804588, 12.496317863464396 ], [ -81.720146179199077, 12.545276641845799 ], [ -81.713897705078068, 12.564998626708999 ], [ -81.704727172851577, 12.580275535583596 ], [ -81.692367553710881, 12.590276718139597 ], [ -81.681320190429588, 12.585762977600096 ], [ -81.690979003906278, 12.532220840454197 ], [ -81.702514648437486, 12.507221221923796 ], [ -81.710281372070284, 12.490833282470696 ], [ -81.713058471679588, 12.490276336669897 ] ] ], [ [ [ -77.941146850585866, 2.610616207122919 ], [ -77.93746948242179, 2.650902509689329 ], [ -77.90361785888669, 2.604305505752559 ], [ -77.89736175537108, 2.577985763549799 ], [ -77.861045837402287, 2.55999946594238 ], [ -77.787651062011676, 2.569444179534969 ], [ -77.745422363281079, 2.610416412353569 ], [ -77.764587402343679, 2.64263868331915 ], [ -77.781112670898381, 2.756388664245719 ], [ -77.714172363281293, 2.86666631698608 ], [ -77.566116333007784, 3.050277709960879 ], [ -77.547790527343665, 3.05958318710333 ], [ -77.417648315429588, 3.260694026946959 ], [ -77.408325195312486, 3.288100242614689 ], [ -77.431632995605383, 3.301172733306939 ], [ -77.468124389648381, 3.330069065094049 ], [ -77.450004577636676, 3.35749959945679 ], [ -77.363891601562486, 3.412499904632629 ], [ -77.244171142577983, 3.566388607025259 ], [ -77.211669921874986, 3.575277328491319 ], [ -77.141113281249972, 3.665832996368519 ], [ -77.128486633300668, 3.708888769149889 ], [ -77.12570190429679, 3.768749713897819 ], [ -77.032714843749872, 3.918402433395499 ], [ -77.083068847656165, 3.906666278839229 ], [ -77.11264038085929, 3.894444227218679 ], [ -77.159729003906293, 3.86249971389771 ], [ -77.188613891601591, 3.843610763549859 ], [ -77.237091064453082, 3.838888645172119 ], [ -77.265419006347585, 3.840138673782349 ], [ -77.28695678710929, 3.851943969726559 ], [ -77.297676086425668, 3.915860652923529 ], [ -77.285942077636577, 3.95075654983521 ], [ -77.260093688964773, 3.966701030731309 ], [ -77.214454650878892, 3.971944332122749 ], [ -77.18722534179679, 4.060276985168569 ], [ -77.210556030273381, 4.076944351196349 ], [ -77.260559082031179, 4.095555305481009 ], [ -77.29473114013669, 4.063333034515439 ], [ -77.31264495849598, 4.04083251953131 ], [ -77.329086303710881, 3.986388444900629 ], [ -77.34438323974598, 3.95113849639898 ], [ -77.366256713867188, 3.925971984863279 ], [ -77.422500610351477, 3.998610973358209 ], [ -77.434448242187486, 4.031388282775989 ], [ -77.437088012695284, 4.142082691192679 ], [ -77.425567626953082, 4.178679943084769 ], [ -77.337402343749986, 4.217152118682979 ], [ -77.276123046874886, 4.214999198913569 ], [ -77.248184204101591, 4.245383262634219 ], [ -77.242301940917983, 4.260902404785159 ], [ -77.289871215820284, 4.271110534668079 ], [ -77.337364196777287, 4.269304752349909 ], [ -77.382438659667883, 4.34215211868286 ], [ -77.346672058105369, 4.442915916442929 ], [ -77.342514038085881, 4.449443817138669 ], [ -77.334167480468679, 4.471110343933219 ], [ -77.313064575195284, 4.546527385711779 ], [ -77.316680908203082, 4.648055076599119 ], [ -77.321670532226477, 4.719444274902339 ], [ -77.339736938476591, 4.816388130188099 ], [ -77.347778320312486, 4.842499732971188 ], [ -77.353477478027273, 4.867499351501519 ], [ -77.361679077148381, 4.940554618835449 ], [ -77.372222900390582, 5.082777023315489 ], [ -77.371261596679574, 5.154860496520999 ], [ -77.353721618652287, 5.202811717987059 ], [ -77.347778320312486, 5.240554809570369 ], [ -77.360000610351591, 5.298333168029789 ], [ -77.396812438964773, 5.45624971389771 ], [ -77.480697631835881, 5.504235267639269 ], [ -77.532226562499972, 5.518888473510859 ], [ -77.504516601562372, 5.584166049957328 ], [ -77.420562744140582, 5.624027252197319 ], [ -77.382507324218793, 5.617776870727649 ], [ -77.359176635742088, 5.604235172271729 ], [ -77.326881408691392, 5.616388320922909 ], [ -77.250564575195185, 5.709027290344348 ], [ -77.240844726562472, 5.758193969726559 ], [ -77.245010375976491, 5.788332939147889 ], [ -77.338897705078082, 5.987499237060489 ], [ -77.408065795898366, 6.080554962158319 ], [ -77.454315185546875, 6.130693912506159 ], [ -77.475700378417883, 6.158332824707029 ], [ -77.488891601562472, 6.185346603393549 ], [ -77.475845336914091, 6.283055305481009 ], [ -77.407295227050781, 6.239930152893178 ], [ -77.385284423828082, 6.281665802001949 ], [ -77.355834960937372, 6.391387939453129 ], [ -77.340423583984389, 6.567360877990779 ], [ -77.408203124999872, 6.690555095672658 ], [ -77.443756103515582, 6.711944103240969 ], [ -77.466537475585881, 6.714304924011339 ], [ -77.666397094726591, 6.876666069030699 ], [ -77.652923583984389, 6.977221965789848 ], [ -77.656402587890582, 7.000832557678218 ], [ -77.680839538574176, 7.055971622467098 ], [ -77.793334960937486, 7.151944160461368 ], [ -77.88972473144527, 7.228888511657709 ], [ -77.807502746581989, 7.478680133819638 ], [ -77.775703430175781, 7.475416183471788 ], [ -77.748619079589787, 7.484305381774898 ], [ -77.732223510742188, 7.505902290344348 ], [ -77.720977783203082, 7.536457538604789 ], [ -77.729377746581974, 7.568888187408558 ], [ -77.754592895507784, 7.612221717834529 ], [ -77.759170532226577, 7.633332729339708 ], [ -77.759445190429588, 7.667222023010198 ], [ -77.758895874023366, 7.693055152893118 ], [ -77.744033813476591, 7.719999313354488 ], [ -77.663894653320284, 7.679443836212219 ], [ -77.624176025390582, 7.603332519531247 ], [ -77.610290527343579, 7.562499046325678 ], [ -77.600143432617088, 7.539235591888537 ], [ -77.577438354492188, 7.526180267333978 ], [ -77.330978393554673, 7.701805114746147 ], [ -77.330078124999872, 7.726176261901968 ], [ -77.370002746581974, 7.778471946716368 ], [ -77.311401367187372, 7.886943817138729 ], [ -77.295211791992188, 7.904860496520998 ], [ -77.215560913085781, 7.937221527099609 ], [ -77.198333740234389, 7.999444007873648 ], [ -77.215423583984389, 8.087915420532278 ], [ -77.243896484374972, 8.145277023315538 ], [ -77.27361297607419, 8.198610305786248 ], [ -77.29611206054679, 8.215831756591909 ], [ -77.348892211914091, 8.267776489257928 ], [ -77.362503051757784, 8.284998893737848 ], [ -77.368057250976392, 8.337221145629938 ], [ -77.36862182617179, 8.364166259765629 ], [ -77.375007629394489, 8.398610115051268 ], [ -77.405769348144489, 8.451317787170519 ], [ -77.42910003662108, 8.472498893737908 ], [ -77.468582153320284, 8.471699714660637 ], [ -77.475769042968793, 8.521110534667908 ], [ -77.452232360839787, 8.556943893432619 ], [ -77.438613891601477, 8.566665649414178 ], [ -77.371948242187372, 8.646110534667969 ], [ -77.366668701171889, 8.674999237060549 ], [ -77.346954345703082, 8.662221908569279 ], [ -77.300292968749972, 8.578332901001088 ], [ -77.284660339355483, 8.516526222229118 ], [ -77.240974426269489, 8.464720726013239 ], [ -77.220001220703082, 8.451110839843688 ], [ -77.199447631835781, 8.443609237671009 ], [ -77.16389465332027, 8.434165954589837 ], [ -77.134521484374986, 8.410207748413198 ], [ -77.118896484374986, 8.386388778686639 ], [ -77.081680297851591, 8.326110839843809 ], [ -76.968612670898381, 8.238332748413137 ], [ -76.955566406249886, 8.189998626709038 ], [ -76.948623657226491, 8.159166336059569 ], [ -76.88778686523429, 8.121665954589957 ], [ -76.838577270507685, 8.133211135864197 ], [ -76.834106445312472, 8.129096031189079 ], [ -76.832504272460881, 8.086387634277457 ], [ -76.836677551269489, 8.026456832885858 ], [ -76.870559692382784, 8.034651756286678 ], [ -76.892921447753793, 8.046665191650328 ], [ -76.916748046874886, 8.031526565551868 ], [ -76.927505493164091, 7.985554695129447 ], [ -76.923889160156278, 7.936040878296008 ], [ -76.871948242187386, 7.909443855285697 ], [ -76.816955566406293, 7.904999732971248 ], [ -76.757919311523381, 7.919166088104298 ], [ -76.744453430175781, 7.935832977295039 ], [ -76.731948852538991, 8.039165496826229 ], [ -76.738960266113281, 8.090623855590929 ], [ -76.753341674804688, 8.197498321533319 ], [ -76.765289306640582, 8.340693473815968 ], [ -76.77382659912108, 8.411249160766719 ], [ -76.821815490722685, 8.482220649719299 ], [ -76.876670837402287, 8.521388053893988 ], [ -76.928199768066293, 8.537220954895128 ], [ -76.928344726562486, 8.568332672119077 ], [ -76.884727478027287, 8.622220993041989 ], [ -76.818069458007685, 8.633888244628908 ], [ -76.673896789550767, 8.676595687866268 ], [ -76.432434082031293, 8.876596450805717 ], [ -76.426757812499886, 8.906387329101678 ], [ -76.418899536132784, 8.906665802002069 ], [ -76.398895263671776, 8.910554885864308 ], [ -76.373611450195284, 8.916110992431697 ], [ -76.317512512206989, 8.938610076904299 ], [ -76.264175415038892, 8.995276451110838 ], [ -76.180557250976591, 9.191944122314508 ], [ -76.17264556884767, 9.235832214355469 ], [ -76.110565185546875, 9.315553665161248 ], [ -76.089736938476491, 9.335832595825199 ], [ -76.071395874023381, 9.345554351806749 ], [ -75.918624877929588, 9.422222137451287 ], [ -75.816047668456889, 9.438610076904409 ], [ -75.725219726562372, 9.421241760253908 ], [ -75.68791961669919, 9.411387443542479 ], [ -75.656677246093679, 9.425832748413137 ], [ -75.634315490722685, 9.448193550109979 ], [ -75.620010375976591, 9.472221374511777 ], [ -75.598068237304688, 9.522776603698727 ], [ -75.591117858886676, 9.546943664550778 ], [ -75.585556030273381, 9.583055496215819 ], [ -75.585281372070284, 9.606388092041069 ], [ -75.591400146484389, 9.634721755981447 ], [ -75.601394653320284, 9.665554046630918 ], [ -75.626808166503793, 9.698887825012209 ], [ -75.660842895507784, 9.760276794433707 ], [ -75.635284423828082, 9.824720382690538 ], [ -75.596115112304588, 9.957498550415096 ], [ -75.590286254882784, 9.979442596435549 ], [ -75.580146789550781, 10.045692443847699 ], [ -75.580001831054574, 10.071943283080998 ], [ -75.582519531249986, 10.088633537292598 ], [ -75.571670532226591, 10.134443283081199 ], [ -75.534034729003793, 10.182359695434599 ], [ -75.531677246093793, 10.236944198608397 ], [ -75.485290527343665, 10.446664810180696 ], [ -75.486671447753892, 10.490971565246598 ], [ -75.504035949706974, 10.550138473510696 ], [ -75.476119995117074, 10.592777252197198 ], [ -75.40888977050777, 10.658609390258796 ], [ -75.288070678710866, 10.724443435668997 ], [ -75.261398315429673, 10.721387863159096 ], [ -75.251846313476491, 10.706455230712798 ], [ -75.226608276367188, 10.729165077209498 ], [ -75.235626220703082, 10.762012481689496 ], [ -75.250839233398381, 10.746109008789098 ], [ -75.268196105956989, 10.753054618835497 ], [ -75.264137268066293, 10.798992156982399 ], [ -75.244026184081974, 10.800321578979597 ], [ -75.222778320312486, 10.805555343627898 ], [ -75.039451599120966, 10.905832290649498 ], [ -75.031768798828082, 10.936005592346298 ], [ -75.023056030273381, 10.966526985168496 ], [ -74.92111206054679, 11.068887710571298 ], [ -74.868057250976477, 11.119720458984398 ], [ -74.86080932617179, 11.125486373901397 ], [ -74.834587097167883, 11.105554580688498 ], [ -74.505004882812386, 10.993331909179696 ], [ -74.476119995117074, 10.987220764160199 ], [ -74.450836181640582, 10.983888626098699 ], [ -74.423614501953082, 10.983055114746199 ], [ -74.379730224609389, 10.983055114746199 ], [ -74.341674804687486, 10.986665725707999 ], [ -74.315979003906179, 10.991804122924899 ], [ -74.292228698730383, 10.999026298522896 ], [ -74.304870605468778, 10.983471870422399 ], [ -74.327224731445284, 10.974860191345298 ], [ -74.354736328124972, 10.971109390258896 ], [ -74.419029235839787, 10.965831756591898 ], [ -74.465286254882784, 10.971318244934096 ], [ -74.591743469238281, 10.877637863159197 ], [ -74.607505798339787, 10.823609352111898 ], [ -74.593307495117088, 10.783297538757298 ], [ -74.519180297851591, 10.812776565551799 ], [ -74.465286254882784, 10.765971183776896 ], [ -74.457778930664091, 10.742499351501499 ], [ -74.395004272460881, 10.742152214050298 ], [ -74.37541961669919, 10.755414962768597 ], [ -74.358268737792983, 10.783401489257898 ], [ -74.33222961425777, 10.863609313964897 ], [ -74.290557861328082, 10.967498779296898 ], [ -74.263618469238182, 11.016942977905298 ], [ -74.229873657226491, 11.118610382080199 ], [ -74.238891601562472, 11.196665763854996 ], [ -74.236953735351392, 11.234998703002997 ], [ -74.215560913085866, 11.269165039062596 ], [ -74.188903808593793, 11.309720993041996 ], [ -74.155014038085881, 11.331388473510696 ], [ -74.037231445312386, 11.356388092041096 ], [ -74.012786865234389, 11.355276107788097 ], [ -73.969589233398381, 11.339026451110797 ], [ -73.951255798339787, 11.319165229797399 ], [ -73.866958618164077, 11.284721374511696 ], [ -73.790840148925781, 11.265693664550799 ], [ -73.672500610351591, 11.265275955200096 ], [ -73.631393432617188, 11.271248817443896 ], [ -73.594726562499886, 11.273054122924796 ], [ -73.557235717773381, 11.273887634277397 ], [ -73.537246704101591, 11.271329879760698 ], [ -73.508895874023381, 11.269721984863299 ], [ -73.384315490722685, 11.273887634277397 ], [ -73.345001220703082, 11.279443740844696 ], [ -73.316955566406293, 11.285831451416096 ], [ -73.284454345703082, 11.295555114745998 ], [ -73.267501831054688, 11.306388854980597 ], [ -73.206260681152287, 11.349025726318498 ], [ -73.195846557617188, 11.376526832580598 ], [ -73.143066406249886, 11.424444198608297 ], [ -73.034729003906179, 11.502777099609396 ], [ -72.768760681152287, 11.687776565551797 ], [ -72.730903625488182, 11.706805229187097 ], [ -72.517646789550682, 11.787499427795398 ], [ -72.487365722656293, 11.784095764160199 ], [ -72.457504272460881, 11.784999847412198 ], [ -72.416252136230483, 11.797777175903397 ], [ -72.279724121093579, 11.875831604003897 ], [ -72.258621215820284, 11.889165878295996 ], [ -72.232711791992088, 11.915207862854098 ], [ -72.138717651367188, 12.106388092041097 ], [ -72.138900756835881, 12.126943588256797 ], [ -72.145835876464787, 12.207289695739696 ], [ -72.168853759765568, 12.221561431884796 ], [ -72.157920837402273, 12.241108894348297 ], [ -72.138626098632784, 12.249443054199196 ], [ -72.028625488281065, 12.257776260375998 ], [ -71.964759826660185, 12.251977920532196 ], [ -71.982513427734389, 12.225692749023498 ], [ -72.01181030273429, 12.192638397216896 ], [ -71.986045837402287, 12.157081604003999 ], [ -71.963058471679688, 12.153610229492296 ], [ -71.937789916992173, 12.162776947021497 ], [ -71.864242553710881, 12.210762977600098 ], [ -71.809722900390582, 12.313331604003896 ], [ -71.69292449951169, 12.366388320922798 ], [ -71.631393432617074, 12.421595573425297 ], [ -71.655014038085881, 12.438888549804696 ], [ -71.704383850097685, 12.434477806091396 ], [ -71.736534118652273, 12.414165496826197 ], [ -71.724311828613281, 12.440971374511697 ], [ -71.690841674804673, 12.459304809570396 ], [ -71.661537170410085, 12.463888168335098 ], [ -71.563613891601392, 12.453609466552697 ], [ -71.528625488281293, 12.446109771728596 ], [ -71.275703430175781, 12.346110343933198 ], [ -71.243057250976491, 12.321664810180698 ], [ -71.220840454101491, 12.302082061767598 ], [ -71.114868164062486, 12.098609924316397 ], [ -71.110839843749986, 12.075554847717296 ], [ -71.114181518554688, 12.048887252807699 ], [ -71.131256103515582, 12.017359733581497 ], [ -71.173622131347585, 11.984443664550897 ], [ -71.231948852539091, 11.951387405395497 ], [ -71.282501220703082, 11.918609619140696 ], [ -71.319458007812386, 11.865276336669996 ], [ -71.324722290039091, 11.853054046630898 ], [ -71.403335571289091, 11.812776565551797 ], [ -71.468063354492188, 11.795555114746197 ], [ -71.626403808593793, 11.755554199218896 ], [ -71.721679687499986, 11.721942901611298 ], [ -71.769729614257784, 11.700832366943398 ], [ -71.968482971191392, 11.666249275207598 ], [ -72.072723388671889, 11.495508193969696 ], [ -72.209350585937486, 11.25 ], [ -72.317642211914091, 11.164513587951797 ], [ -72.349868774414091, 11.163471221923798 ], [ -72.472091674804688, 11.134721755981497 ], [ -72.491256713867188, 11.122776985168498 ], [ -72.540008544921875, 11.031944274902298 ], [ -72.63362121582027, 10.896387100219698 ], [ -72.704727172851591, 10.770554542541598 ], [ -72.810012817382784, 10.590555191040096 ], [ -72.836669921874886, 10.554443359375096 ], [ -72.903549194335881, 10.444443702697798 ], [ -72.908538818359389, 10.426689147949297 ], [ -72.915008544921889, 10.350555419921898 ], [ -72.93889617919919, 10.116456985473699 ], [ -72.956535339355369, 10.082082748413098 ], [ -72.97750854492179, 10.001943588256797 ], [ -72.986465454101491, 9.904929161071777 ], [ -73.004730224609375, 9.768331527709957 ], [ -73.081680297851591, 9.609443664550717 ], [ -73.117507934570284, 9.561388015747179 ], [ -73.245147705078082, 9.408471107482908 ], [ -73.363891601562486, 9.225831985473688 ], [ -73.378067016601491, 9.171388626098578 ], [ -73.345565795898366, 9.166387557983398 ], [ -73.221954345702983, 9.171110153198239 ], [ -73.165634155273381, 9.195762634277338 ], [ -73.143547058105383, 9.223887443542479 ], [ -73.010002136230469, 9.302012443542589 ], [ -72.981124877929588, 9.260831832885797 ], [ -72.958343505859276, 9.201110839843748 ], [ -72.962509155273381, 9.178054809570309 ], [ -72.885559082031179, 9.119165420532228 ], [ -72.779724121093679, 9.080276489257868 ], [ -72.736953735351577, 8.917221069336048 ], [ -72.664459228515582, 8.641109466552788 ], [ -72.42306518554679, 8.389720916748098 ], [ -72.405334472656293, 8.385923385620169 ], [ -72.401741027831989, 8.384167671203608 ], [ -72.388198852539091, 8.369442939758299 ], [ -72.376113891601491, 8.336942672729549 ], [ -72.336669921874986, 8.151943206787049 ], [ -72.325004577636676, 8.089026451110948 ], [ -72.328620910644489, 8.061804771423278 ], [ -72.345840454101591, 8.047706604003848 ], [ -72.389381408691293, 8.047567367553768 ], [ -72.459732055664077, 7.920555114746088 ], [ -72.473480224609276, 7.656249523162838 ], [ -72.472442626953082, 7.497985363006649 ], [ -72.419311523437386, 7.420554637908988 ], [ -72.401672363281179, 7.407221794128468 ], [ -72.397766113281165, 7.406425476074327 ], [ -72.323898315429688, 7.393054962158197 ], [ -72.26250457763669, 7.389443874359128 ], [ -72.154724121093793, 7.325277328491267 ], [ -72.164039611816293, 7.289443969726619 ], [ -72.164596557617088, 7.26249980926525 ], [ -72.145278930664091, 7.198610305786078 ], [ -72.132926940917883, 7.173332691192628 ], [ -72.113342285156293, 7.138333320617728 ], [ -72.092514038085881, 7.103610992431698 ], [ -72.066101074218579, 7.062415122985838 ], [ -72.05380249023429, 7.062150001525938 ], [ -71.99236297607419, 7.016249656677248 ], [ -71.926803588867188, 7.009742259979298 ], [ -71.876876831054588, 6.986526966095078 ], [ -71.832778930664091, 6.987221717834588 ], [ -71.804664611816293, 7.003124237060658 ], [ -71.701950073242188, 7.046388626098749 ], [ -71.645286560058565, 7.060555458068849 ], [ -71.601394653320284, 7.057916164398309 ], [ -71.553070068359375, 7.044999122619738 ], [ -71.488067626953082, 7.028888702392688 ], [ -71.463897705078082, 7.023332595825138 ], [ -71.332504272460881, 7.022360801696779 ], [ -71.262435913085881, 6.987430095672608 ], [ -71.181259155273381, 6.963471889495959 ], [ -71.025009155273381, 6.984443664550838 ], [ -71.005279541015582, 6.992776870727649 ], [ -70.970840454101591, 7.008333206176808 ], [ -70.908203124999986, 7.048193931579698 ], [ -70.886535644531293, 7.075068950653129 ], [ -70.85751342773429, 7.082499504089359 ], [ -70.819458007812386, 7.087499618530218 ], [ -70.719726562499986, 7.098054885864368 ], [ -70.552505493163991, 7.058332443237248 ], [ -70.441680908203082, 7.011110305786079 ], [ -70.386123657226591, 6.983055114746089 ], [ -70.360839843749872, 6.963888168335068 ], [ -70.343902587890582, 6.952499389648549 ], [ -70.323623657226477, 6.944999694824278 ], [ -70.29473114013669, 6.938471794128359 ], [ -70.26229858398429, 6.945693969726558 ], [ -70.243347167968565, 6.960832595825198 ], [ -70.221817016601591, 6.974027156829889 ], [ -70.158485412597685, 6.982499599456839 ], [ -70.119171142578082, 6.975832939148058 ], [ -69.724731445312386, 6.486665725708008 ], [ -69.429458618163991, 6.118610382080139 ], [ -69.404174804687386, 6.130832672119198 ], [ -69.371253967285185, 6.145833015441839 ], [ -69.316116333007784, 6.148610591888369 ], [ -69.300704956054574, 6.122776985168459 ], [ -69.270706176757784, 6.090971469879258 ], [ -69.241744995117173, 6.084096431732288 ], [ -69.19521331787108, 6.100416183471788 ], [ -69.153335571289091, 6.141110420227048 ], [ -69.115570068359389, 6.179165840149039 ], [ -69.087928771972685, 6.203054904937738 ], [ -69.056396484374886, 6.216110229492188 ], [ -69.025840759277287, 6.214860916137698 ], [ -68.827789306640582, 6.186388015747008 ], [ -68.753616333007784, 6.169444084167478 ], [ -68.712020874023381, 6.157013416290399 ], [ -68.686119079589787, 6.141527175903428 ], [ -68.638404846191293, 6.135485172271789 ], [ -68.550003051757685, 6.164443969726558 ], [ -68.476959228515582, 6.186388015747008 ], [ -68.453903198242173, 6.190554618835558 ], [ -68.419311523437386, 6.191805362701529 ], [ -68.374313354492088, 6.179721832275498 ], [ -68.319450378417983, 6.168055057525629 ], [ -68.295288085937486, 6.175832748413089 ], [ -68.229736328124886, 6.198888778686518 ], [ -68.19416809082027, 6.210832595825199 ], [ -68.155151367187386, 6.222776889801138 ], [ -68.132232666015582, 6.223610877990719 ], [ -68.103622436523381, 6.221527099609429 ], [ -68.066116333007784, 6.213333129882868 ], [ -68.035285949706989, 6.205554962158198 ], [ -67.997924804687486, 6.207221508026119 ], [ -67.957511901855483, 6.217777252197269 ], [ -67.918128967285185, 6.238193511962948 ], [ -67.831184387206989, 6.307569026947078 ], [ -67.693344116210881, 6.293055534362789 ], [ -67.635284423828082, 6.285138130188048 ], [ -67.56362152099608, 6.262499809265079 ], [ -67.534454345703082, 6.243055343627988 ], [ -67.496261596679588, 6.205416202545168 ], [ -67.472610473632784, 6.194450855255068 ], [ -67.454452514648381, 6.193055152893069 ], [ -67.489242553710881, 6.153749465942499 ], [ -67.492523193359389, 6.121409893035948 ], [ -67.485565185546889, 6.097777366638298 ], [ -67.469581604003793, 6.069663047790579 ], [ -67.43498992919919, 6.038642406463619 ], [ -67.413978576660085, 5.995537757873589 ], [ -67.426254272460881, 5.976729393005368 ], [ -67.461730957031179, 5.955536842346309 ], [ -67.478927612304588, 5.941597938537708 ], [ -67.531875610351591, 5.891327857971188 ], [ -67.59706878662098, 5.824686527252198 ], [ -67.620002746581989, 5.792221546173099 ], [ -67.642929077148381, 5.731388568878289 ], [ -67.651672363281293, 5.683194160461479 ], [ -67.648895263671889, 5.652221679687609 ], [ -67.642227172851591, 5.612221717834589 ], [ -67.633750915527287, 5.578263282775988 ], [ -67.615913391113281, 5.548193931579648 ], [ -67.649444580077983, 5.478332519531188 ], [ -67.688339233398381, 5.44861030578608 ], [ -67.74765014648429, 5.412210941314748 ], [ -67.769172668456989, 5.406805038452149 ], [ -67.803894042968793, 5.383266925811818 ], [ -67.848632812499886, 5.306518554687499 ], [ -67.829727172851591, 5.131388664245659 ], [ -67.820281982421889, 5.093333244323728 ], [ -67.802780151367088, 5.039443969726509 ], [ -67.801582336425781, 4.973239421844429 ], [ -67.813598632812486, 4.831158638000489 ], [ -67.816650390624986, 4.801625251770079 ], [ -67.824722290038991, 4.736665725708008 ], [ -67.858757019042883, 4.561249732971309 ], [ -67.784797668456989, 4.334756374359239 ], [ -67.801261901855383, 4.30013847351074 ], [ -67.805557250976491, 4.272777557372989 ], [ -67.806251525878892, 4.231805324554389 ], [ -67.78667449951169, 4.166527271270869 ], [ -67.729171752929588, 4.087499618530269 ], [ -67.708511352539091, 4.046954154968259 ], [ -67.692779541015582, 3.969721794128419 ], [ -67.680557250976591, 3.921388626098749 ], [ -67.635147094726577, 3.797638654708919 ], [ -67.615982055664091, 3.75902771949774 ], [ -67.599868774414091, 3.74069428443909 ], [ -67.576950073242088, 3.732360839843749 ], [ -67.541954040527287, 3.736527442932239 ], [ -67.51167297363277, 3.737985849380489 ], [ -67.49104309082017, 3.724306583404539 ], [ -67.437088012695284, 3.648333072662469 ], [ -67.428344726562486, 3.608055114746149 ], [ -67.395568847656179, 3.512499809265079 ], [ -67.381118774414077, 3.48597192764288 ], [ -67.362922668456989, 3.473055362701529 ], [ -67.341537475585881, 3.46652746200562 ], [ -67.306602478027187, 3.452777385711669 ], [ -67.292854309081989, 3.396041393280089 ], [ -67.346397399902273, 3.313680171966669 ], [ -67.369735717773281, 3.304721832275449 ], [ -67.435562133789091, 3.253888607025149 ], [ -67.499999999999886, 3.190658092498839 ], [ -67.656677246093679, 3.042777538299559 ], [ -67.833068847656293, 2.876666545868029 ], [ -67.823616027831989, 2.827083110809439 ], [ -67.765838623046875, 2.832499980926509 ], [ -67.634445190429588, 2.809444427490349 ], [ -67.605834960937386, 2.793333053588869 ], [ -67.589736938476491, 2.764166355133109 ], [ -67.535278320312386, 2.679999828338619 ], [ -67.485565185546889, 2.65333318710339 ], [ -67.325210571289091, 2.47402763366699 ], [ -67.281402587890582, 2.438888549804739 ], [ -67.257926940917883, 2.4290275573731 ], [ -67.219520568847585, 2.413124561309759 ], [ -67.192504882812386, 2.392499923706109 ], [ -67.174179077148381, 2.336527347564699 ], [ -67.18459320068348, 2.31611084938049 ], [ -67.207511901855383, 2.29486083984381 ], [ -67.216949462890582, 2.275277614593509 ], [ -67.211540222167983, 2.24361085891735 ], [ -67.198623657226491, 2.20749974250805 ], [ -67.175292968749986, 2.15333318710327 ], [ -67.160568237304588, 2.13249969482422 ], [ -67.113235473632784, 2.0266547203064 ], [ -66.99166870117179, 1.69583320617681 ], [ -66.926391601562486, 1.459722042083849 ], [ -66.899032592773381, 1.28409707546234 ], [ -66.891677856445284, 1.25138878822332 ], [ -66.875076293945284, 1.22590124607092 ], [ -66.87045288085929, 1.22093200683588 ], [ -66.885292053222685, 1.22109580039984 ], [ -67.032783508300682, 1.1824998855592 ], [ -67.075286865234389, 1.17249989509594 ], [ -67.084167480468679, 1.19388866424572 ], [ -67.087783813476591, 1.26638865470892 ], [ -67.087783813476591, 1.28638887405396 ], [ -67.080421447753892, 1.38527774810797 ], [ -67.073898315429588, 1.41444420814514 ], [ -67.063613891601591, 1.43833327293407 ], [ -67.056877136230483, 1.520138740539549 ], [ -67.071182250976591, 1.620407342910769 ], [ -67.113616943359389, 1.734999895095769 ], [ -67.160842895507784, 1.81861090660107 ], [ -67.206604003906293, 1.875833272934019 ], [ -67.228195190429588, 1.891805410385249 ], [ -67.264724731445284, 1.946944355964769 ], [ -67.308898925781293, 2.03277730941784 ], [ -67.319732666015582, 2.063055515289419 ], [ -67.325424194335881, 2.08847188949596 ], [ -67.339729309081974, 2.113055229187129 ], [ -67.422576904296889, 2.14284706115723 ], [ -67.505844116210881, 2.10694408416759 ], [ -67.565841674804688, 2.06722211837774 ], [ -67.585983276367188, 2.053055286407469 ], [ -67.666397094726491, 1.97333312034607 ], [ -67.676956176757784, 1.93694424629217 ], [ -67.687225341796889, 1.919583201408329 ], [ -67.77104949951169, 1.818819284439089 ], [ -67.811668395995966, 1.78430545330059 ], [ -67.872505187988182, 1.75513875484467 ], [ -67.914733886718679, 1.745277643203849 ], [ -67.941810607910071, 1.742499828338619 ], [ -67.967781066894389, 1.74583327770245 ], [ -67.990707397460881, 1.75374984741205 ], [ -68.010147094726591, 1.768472075462399 ], [ -68.035278320312386, 1.801388740539609 ], [ -68.065567016601591, 1.8533332347871 ], [ -68.075141906738182, 1.87208318710339 ], [ -68.088478088378892, 1.927083134651129 ], [ -68.104866027831989, 1.95180547237391 ], [ -68.124031066894489, 1.963749885559199 ], [ -68.174453735351591, 1.977499961853139 ], [ -68.196395874023381, 1.977499961853139 ], [ -68.226669311523381, 1.9336109161377 ], [ -68.236953735351577, 1.909722089767509 ], [ -68.257232666015582, 1.85277771949768 ], [ -68.232788085937386, 1.77555537223822 ], [ -68.211532592773381, 1.77187478542334 ], [ -68.182647705077983, 1.76652765274054 ], [ -68.153060913085881, 1.724166631698669 ], [ -68.828903198242188, 1.72611093521118 ], [ -69.103057861328082, 1.72749996185297 ], [ -69.240005493164091, 1.728055477142389 ], [ -69.372474670410185, 1.728055477142389 ], [ -69.400283813476491, 1.74444437026983 ], [ -69.459167480468793, 1.76027774810797 ], [ -69.553901672363182, 1.78388881683355 ], [ -69.700561523437486, 1.745277643203849 ], [ -69.784942626953082, 1.70756924152374 ], [ -69.846099853515582, 1.710455179214529 ], [ -69.842224121093679, 1.69805550575268 ], [ -69.842224121093679, 1.07222199440014 ], [ -69.71833801269527, 1.07249999046326 ], [ -69.61361694335929, 1.07805538177485 ], [ -69.435287475585881, 1.03833317756647 ], [ -69.376815795898381, 1.05652773380291 ], [ -69.338478088378793, 1.07291650772095 ], [ -69.264869689941293, 1.03388869762421 ], [ -69.227920532226591, 0.999027669429893 ], [ -69.140289306640582, 0.863472163677329 ], [ -69.159309387206989, 0.752916634082851 ], [ -69.127815246581989, 0.644027709960938 ], [ -69.209777832031278, 0.61631095409399 ], [ -69.287513732910185, 0.622916579246635 ], [ -69.328903198242188, 0.65638887882244 ], [ -69.45928192138669, 0.73659718036663 ], [ -69.683479309081974, 0.6772221326828 ], [ -69.749999999999886, 0.633888840675297 ], [ -69.79570770263669, 0.601527690887508 ], [ -69.922500610351491, 0.597777724266052 ], [ -69.983474731445284, 0.597916603088436 ], [ -70.04473114013669, 0.584999978542328 ], [ -70.046401977538991, 0.511388778686523 ], [ -70.048339843749986, 0.368333280086574 ], [ -70.049453735351491, 0.306944429874477 ], [ -70.052505493163991, 0.143611103296337 ], [ -70.055526733398381, 0.0 ], [ -70.057510375976591, -0.088055565953198 ], [ -70.058059692382784, -0.157500028610229 ], [ -70.021667480468793, -0.203611135482788 ], [ -69.933479309081989, -0.304305583238545 ], [ -69.739456176757784, -0.4556944668293 ], [ -69.71709442138669, -0.460972279310113 ], [ -69.68862152099608, -0.466805577278137 ], [ -69.630416870117088, -0.494166731834412 ], [ -69.606536865234389, -0.519861161708832 ], [ -69.573547363281179, -0.634930670261269 ], [ -69.582778930664091, -0.668055653572083 ], [ -69.596321105956989, -0.700486183166504 ], [ -69.61528778076169, -0.724305629730168 ], [ -69.612648010253793, -0.755833387374764 ], [ -69.517784118652287, -0.933472335338593 ], [ -69.480842590331989, -0.955000102519932 ], [ -69.434234619140582, -1.00118064880365 ], [ -69.441970825195185, -1.01780796051025 ], [ -69.431396484374986, -1.04097235202784 ], [ -69.411956787109389, -1.13194465637196 ], [ -69.390014648437472, -1.24611115455627 ], [ -69.378547668456989, -1.33791673183435 ], [ -69.391044616699091, -1.381527900695799 ], [ -69.452636718749886, -1.52603197097773 ], [ -69.522506713867188, -1.91416668891901 ], [ -69.594177246093579, -2.31111145019526 ], [ -69.607788085937386, -2.386389255523619 ], [ -69.625839233398281, -2.48222255706787 ], [ -69.635284423827969, -2.53444480895996 ], [ -69.793060302734389, -3.419167041778509 ], [ -69.881958007812486, -3.920278072357119 ], [ -69.943336486816392, -4.212361335754339 ], [ -69.956924438476491, -4.236873626708869 ], [ -69.956680297851591, -4.209444999694769 ], [ -69.98861694335929, -4.175972938537599 ], [ -70.021118164062386, -4.153889656066839 ], [ -70.040847778320284, -4.140556335449219 ], [ -70.12306976318348, -4.072361946105899 ], [ -70.136123657226491, -4.050833702087399 ], [ -70.14430999755858, -4.031806468963569 ], [ -70.152511596679673, -4.005833625793459 ], [ -70.16265106201169, -3.974861383438109 ], [ -70.181884765624986, -3.937430620193419 ], [ -70.234451293945284, -3.871250391006409 ], [ -70.323059082031179, -3.799166679382319 ], [ -70.341674804687486, -3.79000043869019 ], [ -70.362228393554688, -3.787777900695739 ], [ -70.406532287597685, -3.802500247955269 ], [ -70.423896789550781, -3.816111326217589 ], [ -70.479446411132784, -3.850000381469669 ], [ -70.500839233398281, -3.859305858612059 ], [ -70.527992248535085, -3.859236240386959 ], [ -70.607727050781179, -3.829483270645079 ], [ -70.724166870117088, -3.779722690582219 ], [ -70.672225952148381, -3.697778224945009 ], [ -70.627502441406293, -3.629167079925539 ], [ -70.565841674804588, -3.533611297607369 ], [ -70.447235107421776, -3.349444866180359 ], [ -70.412231445312386, -3.294722557067869 ], [ -70.067504882812486, -2.75555562973017 ], [ -70.09848022460929, -2.698333740234379 ], [ -70.120681762695284, -2.701658964157049 ], [ -70.194587707519489, -2.64401769638062 ], [ -70.208862304687472, -2.609430313110349 ], [ -70.218826293945284, -2.57034730911255 ], [ -70.295387268066293, -2.501281023025459 ], [ -70.335647583007784, -2.49239945411676 ], [ -70.355804443359389, -2.49817228317261 ], [ -70.377746582031293, -2.511667966842589 ], [ -70.564453124999986, -2.493333339691159 ], [ -70.582374572753793, -2.48388934135437 ], [ -70.649726867675781, -2.401250123977659 ], [ -70.65764617919919, -2.35819482803333 ], [ -70.858963012695284, -2.225347280502259 ], [ -70.976394653320284, -2.27833366394037 ], [ -71.101119995117188, -2.311944484710689 ], [ -71.188064575195284, -2.360555648803649 ], [ -71.361679077148381, -2.34694480895996 ], [ -71.412223815917983, -2.28125023841858 ], [ -71.520149230956989, -2.234583616256709 ], [ -71.576675415038892, -2.236666679382319 ], [ -71.674316406249872, -2.22500038146973 ], [ -71.684173583984375, -2.196111202239929 ], [ -71.683204650878778, -2.16652822494507 ], [ -71.693199157714787, -2.14791679382324 ], [ -71.721954345703082, -2.159166812896729 ], [ -71.808479309081989, -2.230833530426029 ], [ -71.871398925781293, -2.320278167724609 ], [ -71.889801025390568, -2.37777805328363 ], [ -71.931396484374972, -2.37900733947754 ], [ -71.98223114013669, -2.36944460868835 ], [ -72.070007324218679, -2.40777778625488 ], [ -72.227508544921889, -2.498888969421389 ], [ -72.299453735351491, -2.49138927459717 ], [ -72.32778167724598, -2.483055830001829 ], [ -72.450836181640582, -2.441389083862299 ], [ -72.590148925781079, -2.40722227096552 ], [ -72.683334350585881, -2.440000057220459 ], [ -72.814735412597486, -2.490000247955319 ], [ -72.881958007812386, -2.506389141082709 ], [ -72.902511596679688, -2.453611373901309 ], [ -72.934585571288991, -2.400000333785949 ], [ -72.975006103515568, -2.401667118072449 ], [ -73.003067016601491, -2.41055583953852 ], [ -73.073898315429688, -2.37138891220087 ], [ -73.104736328124886, -2.34694480895996 ], [ -73.11528778076169, -2.32875013351429 ], [ -73.131744384765582, -2.246250152587829 ], [ -73.101257324218793, -2.23194456100458 ], [ -73.077789306640582, -2.20027780532837 ], [ -73.058204650878793, -2.145555734634339 ], [ -73.09042358398429, -1.923611283302309 ], [ -73.132781982421776, -1.84916687011719 ], [ -73.197021484374972, -1.80645847320545 ], [ -73.238891601562486, -1.84555578231806 ], [ -73.296943664550781, -1.87354183197016 ], [ -73.416397094726477, -1.81666684150696 ], [ -73.49057006835929, -1.76694464683533 ], [ -73.507507324218793, -1.748333454132019 ], [ -73.486953735351491, -1.65444445610046 ], [ -73.476959228515582, -1.63666677474976 ], [ -73.447158813476591, -1.61034727096546 ], [ -73.476959228515582, -1.55250000953674 ], [ -73.520004272460866, -1.49361133575439 ], [ -73.542785644531278, -1.4680557250976 ], [ -73.547500610351591, -1.43666672706598 ], [ -73.555702209472685, -1.37527787685394 ], [ -73.65361785888669, -1.28444457054133 ], [ -73.713058471679688, -1.27916669845581 ], [ -73.752235412597685, -1.28972232341766 ], [ -73.840980529785085, -1.26513910293579 ], [ -73.868057250976477, -1.20861124992365 ], [ -74.077789306640568, -1.07277798652649 ], [ -74.215423583984389, -1.03486120700836 ], [ -74.240699768066378, -1.01291680335993 ], [ -74.255279541015582, -0.986666679382324 ], [ -74.282791137695284, -0.930277824401855 ], [ -74.264175415039091, -0.898888945579472 ], [ -74.247787475585881, -0.853611111640873 ], [ -74.290283203124986, -0.809722304344177 ], [ -74.316116333007784, -0.78166675567627 ], [ -74.338897705077983, -0.7063889503479 ], [ -74.358062744140582, -0.633055567741337 ], [ -74.370285034179688, -0.577550888061467 ], [ -74.376113891601591, -0.568055629730225 ], [ -74.39389038085929, -0.543333411216736 ], [ -74.556945800781293, -0.417777836322728 ], [ -74.60751342773429, -0.383611142635289 ], [ -74.632919311523281, -0.406527817249184 ], [ -74.70876312255858, -0.361666709184647 ], [ -74.715835571289091, -0.33361113071436 ], [ -74.716949462890568, -0.311666667461338 ], [ -74.721115112304588, -0.289722263813019 ], [ -74.73361206054679, -0.260972231626511 ], [ -74.749176025390582, -0.235555559396687 ], [ -74.772369384765582, -0.207916676998082 ], [ -74.791946411132784, -0.200277790427151 ], [ -74.81264495849608, -0.205694451928082 ], [ -74.841125488281293, -0.225277781486511 ], [ -74.86028289794919, -0.232500016689301 ], [ -74.938064575195284, -0.198888897895756 ], [ -74.960556030273381, -0.170555561780873 ], [ -75.021392822265568, -0.123055562376976 ], [ -75.13701629638669, -0.045347224920988 ], [ -75.20500946044919, -0.036875002086106 ], [ -75.216674804687486, -0.068333342671394 ], [ -75.225906372070284, -0.09597223252058 ], [ -75.259147644042983, -0.122478328645229 ], [ -75.285842895507784, -0.119722232222557 ], [ -75.300010681152187, -0.102222226560116 ], [ -75.325561523437372, -0.088333338499069 ], [ -75.349731445312486, -0.078333340585232 ], [ -75.399032592773366, -0.072083339095116 ], [ -75.434448242187386, -0.059444449841976 ], [ -75.518890380859389, -0.008055556565523 ], [ -75.575424194335881, 0.031805552542153 ], [ -75.694038391113182, 0.043055552989301 ], [ -75.72750854492179, 0.035555556416511 ], [ -75.760841369628892, 0.046805553138313 ], [ -75.912780761718793, 0.163333326578197 ], [ -75.980285644531278, 0.256388843059597 ], [ -76.02487182617179, 0.320126295089835 ], [ -76.040115356445284, 0.337634623050803 ], [ -76.145278930664091, 0.370833277702445 ], [ -76.243057250976591, 0.395555496215877 ], [ -76.400848388671875, 0.39231938123703 ], [ -76.40779113769527, 0.27166664600378 ], [ -76.448623657226591, 0.246944427490178 ], [ -76.545150756835866, 0.219166651368255 ], [ -76.56667327880848, 0.220555543899536 ], [ -76.584869384765582, 0.230833321809882 ], [ -76.611953735351491, 0.258888840675468 ], [ -76.716667175292883, 0.283194422721863 ], [ -76.726959228515582, 0.2630555331707 ], [ -76.770278930663977, 0.248888880014533 ], [ -76.811401367187486, 0.241388887166977 ], [ -76.86660003662098, 0.239374980330467 ], [ -77.035285949706974, 0.306249946355933 ], [ -77.079605102539091, 0.359559535980225 ], [ -77.191749572753892, 0.334916114807186 ], [ -77.218902587890483, 0.336111068725586 ], [ -77.311676025390582, 0.363055527210236 ], [ -77.379455566406293, 0.384722173213959 ], [ -77.422088623046889, 0.412777751684189 ], [ -77.451118469238182, 0.541249871254024 ], [ -77.44625854492179, 0.585138797760123 ], [ -77.443481445312386, 0.621805489063206 ], [ -77.463760375976591, 0.655555486679077 ], [ -77.493339538574176, 0.665277719497681 ], [ -77.513481140136676, 0.658472120761928 ], [ -77.535842895507784, 0.655694365501461 ], [ -77.565292358398381, 0.673888802528495 ], [ -77.580001831054688, 0.686111092567558 ], [ -77.624725341796889, 0.710833311080989 ], [ -77.646957397460881, 0.728888809681052 ], [ -77.659309387206889, 0.750555455684776 ], [ -77.661666870117088, 0.781388878822327 ], [ -77.656333923339787, 0.809395432472229 ], [ -77.678344726562386, 0.837222218513489 ], [ -77.698616027831989, 0.845277726650295 ], [ -77.780006408691293, 0.827916622161865 ], [ -77.81417846679679, 0.808333277702388 ], [ -77.853897094726591, 0.813749969005698 ], [ -77.883338928222685, 0.825833261013031 ], [ -77.929733276367074, 0.875277757644653 ], [ -77.999313354492173, 0.904305458068961 ], [ -78.032089233398381, 0.900555491447449 ], [ -78.070007324218778, 0.904444336891174 ], [ -78.100006103515568, 0.915972173214016 ], [ -78.175292968749986, 0.970555543899593 ], [ -78.230010986328068, 1.01805543899536 ], [ -78.248336791992188, 1.02986097335827 ], [ -78.283615112304688, 1.03888869285589 ], [ -78.310150146484375, 1.04388880729681 ], [ -78.332229614257784, 1.0527777671814 ], [ -78.353759765624886, 1.06874990463263 ], [ -78.441535949706989, 1.15444433689112 ], [ -78.455841064453082, 1.17472219467157 ], [ -78.466537475585881, 1.19263875484467 ], [ -78.540145874023381, 1.20944428443909 ], [ -78.560287475585881, 1.19861102104198 ], [ -78.591674804687472, 1.24305534362793 ], [ -78.631958007812372, 1.2622220516206 ], [ -78.656677246093793, 1.2719442844392 ], [ -78.677505493164091, 1.28555536270136 ], [ -78.809722900390469, 1.43777775764465 ], [ -78.858680725097685, 1.547847032547 ], [ -78.928207397460881, 1.58055543899542 ], [ -78.948623657226577, 1.58444428443909 ], [ -78.985420227050781, 1.585416555404719 ], [ -79.030769348144489, 1.59881925582886 ], [ -79.050285339355483, 1.63180541992188 ], [ -78.972091674804688, 1.75236093997961 ], [ -78.880699157714787, 1.82555544376379 ], [ -78.844940185546889, 1.83652770519268 ], [ -78.761329650878892, 1.8208332061767 ], [ -78.732513427734389, 1.80569422245037 ], [ -78.621124267578068, 1.764722108840939 ], [ -78.587501525878778, 1.76715254783642 ], [ -78.549728393554588, 1.8822221755982 ], [ -78.546112060546776, 1.91708326339727 ], [ -78.596260070800682, 2.0179164409638 ], [ -78.619445800781179, 2.02993035316467 ], [ -78.654174804687386, 2.063888549804739 ], [ -78.680557250976591, 2.154722213745059 ], [ -78.686874389648381, 2.193471908569339 ], [ -78.642501831054688, 2.289443969726559 ], [ -78.582504272460881, 2.401388645172179 ], [ -78.565292358398381, 2.429166316986139 ], [ -78.556762695312486, 2.390640497207639 ], [ -78.541061401367088, 2.422384500503479 ], [ -78.522888183593793, 2.43418550491344 ], [ -78.465301513671889, 2.44315409660339 ], [ -78.455566406249986, 2.504166364669739 ], [ -78.427993774414091, 2.50833296775829 ], [ -78.389175415039091, 2.47861099243164 ], [ -78.36862182617179, 2.45805549621593 ], [ -78.34645843505858, 2.437846899032709 ], [ -78.265014648437486, 2.519166469574089 ], [ -78.144447326660185, 2.490833044052239 ], [ -78.122505187988168, 2.48736095428467 ], [ -77.986953735351477, 2.522499561309869 ], [ -77.950286865234389, 2.55777764320379 ], [ -77.941146850585866, 2.610616207122919 ] ] ], [ [ [ -77.399444580078082, 4.322222709655759 ], [ -77.376319885253793, 4.309027194976809 ], [ -77.356208801269489, 4.262970447540339 ], [ -77.319732666015582, 4.251666069030819 ], [ -77.333068847656293, 4.239443778991699 ], [ -77.500183105468793, 4.209677219390869 ], [ -77.548545837402273, 4.196179866790829 ], [ -77.538619995117188, 4.232499122619629 ], [ -77.433204650878878, 4.331666469574028 ], [ -77.422920227050767, 4.334304809570258 ], [ -77.410278320312386, 4.32972145080578 ], [ -77.399444580078082, 4.322222709655759 ] ] ], [ [ [ -78.125564575195284, 2.49944400787348 ], [ -78.134033203124872, 2.50111103057861 ], [ -78.21486663818358, 2.57638859748852 ], [ -78.215560913085881, 2.589999675750849 ], [ -78.212921142578082, 2.606180191040099 ], [ -78.205001831054574, 2.620832920074459 ], [ -78.191261291503793, 2.639166355133059 ], [ -78.161117553710881, 2.646666526794429 ], [ -78.149444580078082, 2.64861106872564 ], [ -78.133064270019489, 2.646110773086659 ], [ -78.105560302734389, 2.595971822738649 ], [ -78.101539611816378, 2.586527585983329 ], [ -78.09209442138669, 2.53638863563532 ], [ -78.095291137695284, 2.525833129882869 ], [ -78.11931610107419, 2.502083063125669 ], [ -78.125564575195284, 2.49944400787348 ] ] ] ] } }
]
}
